NORAD_CAT_ID,OBJECT_NAME,OBJECT_TYPE,EPOCH,MEAN_MOTION,ECCENTRICITY,INCLINATION,RA_OF_ASC_NODE,ARG_OF_PERICENTER,MEAN_ANOMALY,BSTAR,MEAN_MOTION_DOT,MEAN_MOTION_DDOT,TLE_LINE0,TLE_LINE1,TLE_LINE2,SEMIMAJOR_AXIS,PERIOD,APOGEE,PERIGEE,DECAYED
53920.0,STARLINK-5025,PAYLOAD,2024-02-22 07:05:21,15.08843182,0.000172,53.2174,64.885,93.5778,266.541,0.00019806,2.866e-05,0.0,0 STARLINK-5025,1 53920U 22119AL  24053.29539203  .00002866  00000-0  19806-3 0  9990,2 53920  53.2174  64.8850 0001720  93.5778 266.5410 15.08843182 78721,6917.871,95.437,540.926,538.546,0.0
53920.0,STARLINK-5025,PAYLOAD,2024-02-22 19:48:26,15.0884781,0.0001591,53.2168,62.5053,94.8566,265.2608,0.00017621,2.518e-05,0.0,0 STARLINK-5025,1 53920U 22119AL  24053.82530826  .00002518  00000-0  17621-3 0  9998,2 53920  53.2168  62.5053 0001591  94.8566 265.2608 15.08847810 79222,6917.857,95.437,540.822,538.621,0.0
53920.0,STARLINK-5025,PAYLOAD,2024-02-23 06:56:08,15.0885009,0.0001362,53.2168,60.423,99.4656,260.649,0.00024541,3.621e-05,0.0,0 STARLINK-5025,1 53920U 22119AL  24054.28898517  .00003621  00000-0  24541-3 0  9998,2 53920  53.2168  60.4230 0001362  99.4656 260.6490 15.08850090 79292,6917.85,95.437,540.657,538.772,0.0
53920.0,STARLINK-5025,PAYLOAD,2024-02-24 03:36:09,15.08838177,0.0001591,53.2169,56.558,98.6379,261.4793,2.9201e-05,1.77e-06,0.0,0 STARLINK-5025,1 53920U 22119AL  24055.15010932  .00000177  00000-0  29201-4 0  9994,2 53920  53.2169  56.5580 0001591  98.6379 261.4793 15.08838177 79000,6917.886,95.438,540.852,538.65,0.0
53920.0,STARLINK-5025,PAYLOAD,2024-02-24 06:46:55,15.08839591,0.0001443,53.2167,55.9638,88.4617,271.654,9.4493e-05,1.216e-05,0.0,0 STARLINK-5025,1 53920U 22119AL  24055.28259058  .00001216  00000-0  94493-4 0  9992,2 53920  53.2167  55.9638 0001443  88.4617 271.6540 15.08839591 79445,6917.882,95.438,540.745,538.748,0.0
53920.0,STARLINK-5025,PAYLOAD,2024-02-25 06:37:42,15.08850396,0.0001524,53.2176,51.5041,93.0691,267.0476,0.00020165,2.924e-05,0.0,0 STARLINK-5025,1 53920U 22119AL  24056.27618477  .00002924  00000-0  20165-3 0  9997,2 53920  53.2176  51.5041 0001524  93.0691 267.0476 15.08850396 79172,6917.849,95.437,540.768,538.659,0.0
53920.0,STARLINK-5025,PAYLOAD,2024-02-25 16:10:01,15.08847783,0.0001512,53.2174,49.72,88.9149,271.2016,5.4483e-05,5.79e-06,0.0,0 STARLINK-5025,1 53920U 22119AL  24056.67362473  .00000579  00000-0  54483-4 0  9998,2 53920  53.2174  49.7200 0001512  88.9149 271.2016 15.08847783 79650,6917.857,95.437,540.768,538.676,0.0
53920.0,STARLINK-5025,PAYLOAD,2024-02-26 03:17:43,15.08842854,0.0001606,53.2178,47.6414,97.2078,262.9097,0.00016105,2.276e-05,0.0,0 STARLINK-5025,1 53920U 22119AL  24057.13730720  .00002276  00000-0  16105-3 0  9998,2 53920  53.2178  47.6414 0001606  97.2078 262.9097 15.08842854 79308,6917.872,95.437,540.848,538.626,0.0
53920.0,STARLINK-5025,PAYLOAD,2024-02-26 04:53:06,15.08843892,0.0001621,53.2178,47.3442,98.2527,261.8649,0.00017033,2.424e-05,0.0,0 STARLINK-5025,1 53920U 22119AL  24057.20354646  .00002424  00000-0  17033-3 0  9991,2 53920  53.2178  47.3442 0001621  98.2527 261.8649 15.08843892 79734,6917.868,95.437,540.855,538.612,0.0
53920.0,STARLINK-5025,PAYLOAD,2024-02-26 22:22:20,15.08844831,0.0001932,53.2181,44.0733,106.634,253.4864,-0.00015403,-2.739e-05,0.0,0 STARLINK-5025,1 53920U 22119AL  24057.93218606 -.00002739  00000-0 -15403-3 0  9996,2 53920  53.2181  44.0733 0001932 106.6340 253.4864 15.08844831 79849,6917.866,95.437,541.067,538.394,0.0
53920.0,STARLINK-5025,PAYLOAD,2024-02-27 03:08:30,15.08834362,0.0001548,53.2176,43.1771,93.8819,266.235,-0.00010122,-1.898e-05,0.0,0 STARLINK-5025,1 53920U 22119AL  24058.13091226 -.00001898  00000-0 -10122-3 0  9994,2 53920  53.2176  43.1771 0001548  93.8819 266.2350 15.08834362 79453,6917.898,95.438,540.834,538.692,0.0
53920.0,STARLINK-5025,PAYLOAD,2024-02-27 07:54:40,15.08837056,0.0001539,53.2188,42.2854,94.2761,265.8407,-2.7748e-05,-7.3e-06,0.0,0 STARLINK-5025,1 53920U 22119AL  24058.32963636 -.00000730  00000-0 -27748-4 0  9995,2 53920  53.2188  42.2854 0001539  94.2761 265.8407 15.08837056 79900,6917.889,95.438,540.819,538.69,0.0
53920.0,STARLINK-5025,PAYLOAD,2024-02-27 15:51:36,15.08836214,0.0001512,53.2186,40.7979,88.1308,271.9857,6.2724e-07,-2.78e-06,0.0,0 STARLINK-5025,1 53920U 22119AL  24058.66083673 -.00000278  00000-0  62724-6 0  9997,2 53920  53.2186  40.7979 0001512  88.1308 271.9857 15.08836214 79956,6917.892,95.438,540.803,538.711,0.0
53920.0,STARLINK-5025,PAYLOAD,2024-02-28 02:59:17,15.08848389,0.0001904,53.2182,38.7155,86.3733,273.7477,-7.6403e-05,-1.504e-05,0.0,0 STARLINK-5025,1 53920U 22119AL  24059.12451209 -.00001504  00000-0 -76403-4 0  9994,2 53920  53.2182  38.7155 0001904  86.3733 273.7477 15.08848389 79608,6917.855,95.437,541.037,538.403,0.0
53920.0,STARLINK-5025,PAYLOAD,2024-02-28 06:10:05,15.087885,0.0001801,53.2188,38.1214,94.9871,265.1327,0.00082125,0.00012788,0.0,0 STARLINK-5025,1 53920U 22119AL  24059.25700731  .00012788  00000-0  82125-3 0  9996,2 53920  53.2188  38.1214 0001801  94.9871 265.1327 15.08788500 79627,6918.038,95.441,541.149,538.657,0.0
53920.0,STARLINK-5025,PAYLOAD,2024-02-28 15:42:23,15.08835477,0.0001517,53.2187,36.336,88.9592,271.1574,9.4614e-05,1.218e-05,0.0,0 STARLINK-5025,1 53920U 22119AL  24059.65443673  .00001218  00000-0  94614-4 0  9992,2 53920  53.2187  36.3360 0001517  88.9592 271.1574 15.08835477 79688,6917.894,95.438,540.809,538.71,0.0
53920.0,STARLINK-5025,PAYLOAD,2024-02-28 22:03:56,15.08830772,0.0001701,53.2194,35.1502,84.6276,275.491,9.4355e-05,1.214e-05,0.0,0 STARLINK-5025,1 53920U 22119AL  24059.91940172  .00001214  00000-0  94355-4 0  9995,2 53920  53.2194  35.1502 0001701  84.6276 275.4910 15.08830772 80145,6917.909,95.438,540.95,538.597,0.0
53920.0,STARLINK-5025,PAYLOAD,2024-02-29 07:36:14,15.08839713,0.0001455,53.2184,33.3624,93.7544,266.3614,0.00011744,1.582e-05,0.0,0 STARLINK-5025,1 53920U 22119AL  24060.31683532  .00001582  00000-0  11744-3 0  9993,2 53920  53.2184  33.3624 0001455  93.7544 266.3614 15.08839713 80205,6917.881,95.438,540.753,538.74,0.0
53920.0,STARLINK-5025,PAYLOAD,2024-02-29 21:54:42,15.08840943,0.0001552,53.2188,30.6885,89.5103,270.6067,6.1567e-05,6.92e-06,0.0,0 STARLINK-5025,1 53920U 22119AL  24060.91299718  .00000692  00000-0  61567-4 0  9998,2 53920  53.2188  30.6885 0001552  89.5103 270.6067 15.08840943 80296,6917.878,95.437,540.816,538.669,0.0
53920.0,STARLINK-5025,PAYLOAD,2024-03-01 04:16:15,15.08842858,0.0001564,53.2189,29.4998,84.1699,275.9471,5.4287e-05,5.76e-06,0.0,0 STARLINK-5025,1 53920U 22119AL  24061.17795613  .00000576  00000-0  54287-4 0  9994,2 53920  53.2189  29.4998 0001564  84.1699 275.9471 15.08842858 79913,6917.872,95.437,540.819,538.655,0.0
53920.0,STARLINK-5025,PAYLOAD,2024-03-01 15:23:57,15.08837421,0.0001492,53.2185,27.4186,85.6944,274.4219,2.5649e-05,1.2e-06,0.0,0 STARLINK-5025,1 53920U 22119AL  24061.64164030  .00000120  00000-0  25649-4 0  9994,2 53920  53.2185  27.4186 0001492  85.6944 274.4219 15.08837421 79986,6917.888,95.438,540.785,538.721,0.0
53920.0,STARLINK-5025,PAYLOAD,2024-03-02 04:07:02,15.08843548,0.0001407,53.2185,25.04,83.0719,277.0433,2.7892e-05,1.56e-06,0.0,0 STARLINK-5025,1 53920U 22119AL  24062.17155663  .00000156  00000-0  27892-4 0  9996,2 53920  53.2185  25.0400 0001407  83.0719 277.0433 15.08843548 80488,6917.87,95.437,540.708,538.761,0.0
53920.0,STARLINK-5025,PAYLOAD,2024-03-03 03:57:49,15.08843427,0.0001407,53.219,20.579,88.8601,271.2553,6.0298e-05,6.72e-06,0.0,0 STARLINK-5025,1 53920U 22119AL  24063.16515498  .00000672  00000-0  60298-4 0  9992,2 53920  53.2190  20.5790 0001407  88.8601 271.2553 15.08843427 80631,6917.87,95.437,540.708,538.762,0.0
53920.0,STARLINK-5025,PAYLOAD,2024-03-03 19:51:41,15.08846741,0.0001818,53.2204,17.6098,82.459,277.6609,-0.00011747,-2.158e-05,0.0,0 STARLINK-5025,1 53920U 22119AL  24063.82756063 -.00002158  00000-0 -11747-3 0  9997,2 53920  53.2204  17.6098 0001818  82.4590 277.6609 15.08846741 80317,6917.86,95.437,540.982,538.467,0.0
53920.0,STARLINK-5025,PAYLOAD,2024-03-04 06:59:22,15.08848111,0.0001408,53.219,15.5226,91.7587,268.3567,0.00010823,1.435e-05,0.0,0 STARLINK-5025,1 53920U 22119AL  24064.29123269  .00001435  00000-0  10823-3 0  9994,2 53920  53.2190  15.5226 0001408  91.7587 268.3567 15.08848111 80802,6917.856,95.437,540.695,538.747,0.0
53920.0,STARLINK-5025,PAYLOAD,2024-03-04 13:20:55,15.08843567,0.0001355,53.2188,14.3317,93.6835,266.4312,8.3493e-05,1.041e-05,0.0,0 STARLINK-5025,1 53920U 22119AL  24064.55619467  .00001041  00000-0  83493-4 0  9990,2 53920  53.2188  14.3317 0001355  93.6835 266.4312 15.08843567 80846,6917.869,95.437,540.672,538.797,0.0
53920.0,STARLINK-5025,PAYLOAD,2024-03-05 02:04:00,15.08837332,0.0001436,53.2194,11.9536,92.331,267.7846,-2.8841e-05,-7.47e-06,0.0,0 STARLINK-5025,1 53920U 22119AL  24065.08612259 -.00000747  00000-0 -28841-4 0  9991,2 53920  53.2194  11.9536 0001436  92.3310 267.7846 15.08837332 80505,6917.889,95.438,540.747,538.76,0.0
53920.0,STARLINK-5025,PAYLOAD,2024-03-05 13:11:42,15.08841607,0.0001478,53.2197,9.8748,85.0514,275.0647,7.1327e-05,8.47e-06,0.0,0 STARLINK-5025,1 53920U 22119AL  24065.54979794  .00000847  00000-0  71327-4 0  9998,2 53920  53.2197   9.8748 0001478  85.0514 275.0647 15.08841607 80578,6917.875,95.437,540.763,538.718,0.0
53920.0,STARLINK-5025,PAYLOAD,2024-03-06 03:30:11,15.08837661,0.0001897,53.2196,7.1958,98.8383,261.2824,-5.9418e-06,-3.83e-06,0.0,0 STARLINK-5025,1 53920U 22119AL  24066.14596484 -.00000383  00000-0 -59418-5 0  9991,2 53920  53.2196   7.1958 0001897  98.8383 261.2824 15.08837661 80661,6917.888,95.438,541.065,538.44,0.0
53920.0,STARLINK-5025,PAYLOAD,2024-03-06 05:05:34,15.08842446,0.0001663,53.2199,6.8993,97.067,263.0511,5.3807e-05,5.68e-06,0.0,0 STARLINK-5025,1 53920U 22119AL  24066.21219990  .00000568  00000-0  53807-4 0  9991,2 53920  53.2199   6.8993 0001663  97.0670 263.0511 15.08842446 81098,6917.873,95.437,540.888,538.587,0.0
